[{"OBJECT_NAME":"SPIP","OBJECT_ID":"2023-174AU","EPOCH":"2026-03-09T22:52:46.383168","MEAN_MOTION":15.26695413,"ECCENTRICITY":0.00100427,"INCLINATION":97.3901,"RA_OF_ASC_NODE":146.4534,"ARG_OF_PERICENTER":168.1112,"MEAN_ANOMALY":192.0366,"EPHEMERIS_TYPE":0,"CLASSIFICATION_TYPE":"U","NORAD_CAT_ID":58298,"ELEMENT_SET_NO":999,"REV_AT_EPOCH":12963,"BSTAR":0.00025731582,"MEAN_MOTION_DOT":6.692e-5,"MEAN_MOTION_DDOT":0},{"OBJECT_NAME":"STARLINK-32103","OBJECT_ID":"2024-086G","EPOCH":"2026-03-09T22:43:55.924320","MEAN_MOTION":15.27571172,"ECCENTRICITY":0.00013899,"INCLINATION":43.0017,"RA_OF_ASC_NODE":47.8761,"ARG_OF_PERICENTER":286.6594,"MEAN_ANOMALY":73.4105,"EPHEMERIS_TYPE":0,"CLASSIFICATION_TYPE":"U","NORAD_CAT_ID":59688,"ELEMENT_SET_NO":999,"REV_AT_EPOCH":10427,"BSTAR":-1.804571e-5,"MEAN_MOTION_DOT":-7.59e-6,"MEAN_MOTION_DDOT":0}]
